CRE (WAAS/PRN 138)      
1 28868U 05036A   21274.63768170 -.00000076  00000-0  00000-0 0  9994
2 28868   0.0361  60.9443 0000560 140.8957 291.0069  1.00271944 29214
IOR-W (EGNOS/PRN 126)   
1 28899U 05044A   21275.44644654  .00000011  00000-0  00000+0 0  9994
2 28899   3.3119  34.7895 0002839 169.3003  31.9268  1.00271608 58260
QZS-1 (QZSS/PRN 183)    
1 37158U 10045A   21274.49285306 -.00000125  00000-0  00000+0 0  9995
2 37158  42.0634 136.9848 0747063 270.2228 280.6422  1.00295300 40473
GSAT-8 (GAGAN/PRN 127)  
1 37605U 11022A   21274.79873319  .00000082  00000-0  00000-0 0  9990
2 37605   0.0256 111.3612 0005884 142.5996  99.4157  1.00272305 35971
LUCH 5A (SDCM/PRN 140)  
1 37951U 11074B   21274.89275435 -.00000047  00000-0  00000-0 0  9999
2 37951   4.3706 102.9672 0003220  52.4723 343.7544  1.00270596 35956
SES-5 (EGNOS/PRN 136)   
1 38652U 12036A   21275.31785506  .00000031  00000-0  00000+0 0  9991
2 38652   0.0593 292.6663 0001856 258.3265 299.6911  1.00271721 33833
GSAT-10 (GAGAN/PRN 128) 
1 38779U 12051B   21275.45178906 -.00000167  00000-0  00000+0 0  9994
2 38779   0.0092 177.2365 0002301  45.0249  34.7942  1.00270133 33055
LUCH 5B (SDCM/PRN 125)  
1 38977U 12061A   21274.71273611 -.00000131  00000-0  00000-0 0  9994
2 38977   6.7342  64.4637 0003878  96.4548  90.0584  1.00272427 32938
ASTRA 5B (EGNOS/PRN 123)
1 39617U 14011B   21275.12549281  .00000152  00000-0  00000+0 0  9999
2 39617   0.0086  62.3074 0003647 131.2106 254.2389  1.00268967 27638
LUCH 5V (SDCM/PRN 141)  
1 39727U 14023A   21275.45263903 -.00000271  00000-0  00000+0 0  9997
2 39727   0.9083  66.3722 0002147 121.4323  81.2576  1.00275575545270
GSAT-15 (GAGAN/PRN 139) 
1 41028U 15065A   21275.09347477 -.00000261  00000-0  00000+0 0  9999
2 41028   0.0348  96.0189 0002316  78.4032 323.7866  1.00271437 21622
E 117 W B (WAAS/PRN 131)
1 41589U 16038B   21275.37540727 -.00000015  00000-0  00000+0 0  9993
2 41589   0.0272  41.8995 0000494  75.4966 272.0684  1.00271826 19477
SES-15 (WAAS/PRN 133)   
1 42709U 17026A   21275.29227765  .00000056  00000-0  00000+0 0  9995
2 42709   0.0162 356.8351 0000743 197.9497 152.5398  1.00274834 16957
QZS-2 (QZSS/PRN 184)    
1 42738U 17028A   21275.32324267 -.00000145  00000-0  00000+0 0  9998
2 42738  42.2080 267.8111 0749179 270.3892  88.8724  1.00258814 15907
QZS-3 (QZSS/PRN 189)    
1 42917U 17048A   21275.31544490 -.00000350  00000-0  00000+0 0  9998
2 42917   0.0562 164.1727 0002586  40.6697  47.0334  1.00274744 15139
QZS-4 (QZSS/PRN 185)    
1 42965U 17062A   21274.55064316 -.00000300  00000-0  00000+0 0  9991
2 42965  40.8150   5.4580 0748472 269.7233  73.1366  1.00276686 14560
